IRIDIUM 57 [-]          
1 25273U 98019B   23295.82282709  .00000689  00000+0  23542-3 0  9996
2 25273  86.4002  37.9076 0002136  92.5900 267.5540 14.34951766338234
IRIDIUM 63 [-]          
1 25286U 98021B   23295.86370166  .00000597  00000+0  20114-3 0  9992
2 25286  86.3993 334.8616 0002408  90.0772 270.0700 14.35456102337261
IRIDIUM 71 [-]          
1 25320U 98026B   23295.84583751  .00000671  00000+0  20705-3 0  9999
2 25320  86.4004 344.7693 0000180  38.2676 321.8536 14.39963386336735
IRIDIUM 73 [-]          
1 25344U 98032C   23295.78649327  .00000773  00000+0  19424-3 0  9996
2 25344  86.4372 302.6043 0001893 104.7389 255.4026 14.50081816343076
IRIDIUM 82 [-]          
1 25467U 98051A   23295.82741547  .00012833  00000+0  74803-3 0  9997
2 25467  86.3971  37.8683 0146306  12.3756 348.1006 15.03156916332602
